[{"OBJECT_NAME":"STARLINK-5956","OBJECT_ID":"2023-042J","EPOCH":"2026-03-09T07:40:56.933760","MEAN_MOTION":15.0254302,"ECCENTRICITY":0.00015998,"INCLINATION":43.004,"RA_OF_ASC_NODE":58.2163,"ARG_OF_PERICENTER":281.1467,"MEAN_ANOMALY":78.9196,"EPHEMERIS_TYPE":0,"CLASSIFICATION_TYPE":"U","NORAD_CAT_ID":55994,"ELEMENT_SET_NO":999,"REV_AT_EPOCH":16285,"BSTAR":4.0507053e-5,"MEAN_MOTION_DOT":3.44e-6,"MEAN_MOTION_DDOT":0},{"OBJECT_NAME":"IRIDIUM 33 DEB","OBJECT_ID":"1997-051ACD","EPOCH":"2026-02-15T04:06:14.442336","MEAN_MOTION":15.0282309,"ECCENTRICITY":0.00183243,"INCLINATION":86.3384,"RA_OF_ASC_NODE":302.6959,"ARG_OF_PERICENTER":121.5358,"MEAN_ANOMALY":29.3036,"EPHEMERIS_TYPE":0,"CLASSIFICATION_TYPE":"U","NORAD_CAT_ID":46971,"ELEMENT_SET_NO":999,"REV_AT_EPOCH":65196,"BSTAR":0.0024316654,"MEAN_MOTION_DOT":0.00032805,"MEAN_MOTION_DDOT":0}]
